{"type":"FeatureCollection","source":"OpenStreetMap via Overpass","retrievedAt":"2026-10-07","features":[{"type":"Feature","properties":{"name":"Göçmen","place":"neighbourhood","source":"OpenStreetMap","osm_type":"node","osm_id":3188091859},"geometry":{"type":"Point","coordinates":[26.6928865,41.3277665]}},{"type":"Feature","properties":{"name":"Yeniköy Mahallesi","place":"neighbourhood","source":"OpenStreetMap","osm_type":"node","osm_id":2285872638},"geometry":{"type":"Point","coordinates":[26.7660443,41.3427692]}},{"type":"Feature","properties":{"name":"1. Murat","place":"suburb","source":"OpenStreetMap","osm_type":"node","osm_id":10270056954},"geometry":{"type":"Point","coordinates":[26.5796122,41.6663433]}},{"type":"Feature","properties":{"name":"100. Yıl","place":"suburb","source":"OpenStreetMap","osm_type":"node","osm_id":11658118940},"geometry":{"type":"Point","coordinates":[26.6457927,41.619749]}},{"type":"Feature","properties":{"name":"Abdurrahman","place":"suburb","source":"OpenStreetMap","osm_type":"node","osm_id":10270056965},"geometry":{"type":"Point","coordinates":[26.5666815,41.6666226]}},{"type":"Feature","properties":{"name":"Atatürk","place":"suburb","source":"OpenStreetMap","osm_type":"node","osm_id":11658124616},"geometry":{"type":"Point","coordinates":[26.5800417,41.6734009]}},{"type":"Feature","properties":{"name":"Atatürk","place":"suburb","source":"OpenStreetMap","osm_type":"node","osm_id":13265586124},"geometry":{"type":"Point","coordinates":[26.6996938,41.2662761]}},{"type":"Feature","properties":{"name":"Aşağı Zaferiye","place":"suburb","source":"OpenStreetMap","osm_type":"node","osm_id":8572032250},"geometry":{"type":"Point","coordinates":[26.6296861,40.8470766]}},{"type":"Feature","properties":{"name":"Aşçıoğlu","place":"suburb","source":"OpenStreetMap","osm_type":"node","osm_id":10068538248},"geometry":{"type":"Point","coordinates":[26.6981206,41.2738538]}},{"type":"Feature","properties":{"name":"Babademirtaş","place":"suburb","source":"OpenStreetMap","osm_type":"node","osm_id":10270056966},"geometry":{"type":"Point","coordinates":[26.5546472,41.6802064]}},{"type":"Feature","properties":{"name":"Barutluk","place":"suburb","source":"OpenStreetMap","osm_type":"node","osm_id":10270056961},"geometry":{"type":"Point","coordinates":[26.5687893,41.6789656]}},{"type":"Feature","properties":{"name":"Beykent","place":"suburb","source":"OpenStreetMap","osm_type":"node","osm_id":8093365726},"geometry":{"type":"Point","coordinates":[26.5871807,40.901335]}},{"type":"Feature","properties":{"name":"Büyük Cami","place":"suburb","source":"OpenStreetMap","osm_type":"node","osm_id":8572032245},"geometry":{"type":"Point","coordinates":[26.6271589,40.8536847]}},{"type":"Feature","properties":{"name":"Büyük Doğanca","place":"suburb","source":"OpenStreetMap","osm_type":"node","osm_id":8094525831},"geometry":{"type":"Point","coordinates":[26.4216684,41.1934892]}},{"type":"Feature","properties":{"name":"Cumhuriyet","place":"suburb","source":"OpenStreetMap","osm_type":"node","osm_id":8572032251},"geometry":{"type":"Point","coordinates":[26.6412435,40.8476985]}},{"type":"Feature","properties":{"name":"Cumhuriyet","place":"suburb","source":"OpenStreetMap","osm_type":"node","osm_id":10949045531},"geometry":{"type":"Point","coordinates":[26.8342471,41.5437327]}},{"type":"Feature","properties":{"name":"Cumhuriyet","place":"suburb","source":"OpenStreetMap","osm_type":"node","osm_id":11658124615},"geometry":{"type":"Point","coordinates":[26.5971383,41.6697442]}},{"type":"Feature","properties":{"name":"Cumhuriyet","place":"suburb","source":"OpenStreetMap","osm_type":"node","osm_id":13265586126},"geometry":{"type":"Point","coordinates":[26.6778692,41.2544038]}},{"type":"Feature","properties":{"name":"Demirtaş","place":"suburb","source":"OpenStreetMap","osm_type":"node","osm_id":2255893175},"geometry":{"type":"Point","coordinates":[26.6898226,41.2945117]}},{"type":"Feature","properties":{"name":"Dilaverbey","place":"suburb","source":"OpenStreetMap","osm_type":"node","osm_id":8259520061},"geometry":{"type":"Point","coordinates":[26.5492159,41.6727181]}},{"type":"Feature","properties":{"name":"Fatih","place":"suburb","source":"OpenStreetMap","osm_type":"node","osm_id":10270056953},"geometry":{"type":"Point","coordinates":[26.5934374,41.6593572]}},{"type":"Feature","properties":{"name":"Fatih Mahallesi","place":"suburb","source":"OpenStreetMap","osm_type":"node","osm_id":2312748079},"geometry":{"type":"Point","coordinates":[26.372734,40.894714]}},{"type":"Feature","properties":{"name":"Habib Hoca","place":"suburb","source":"OpenStreetMap","osm_type":"node","osm_id":13265586127},"geometry":{"type":"Point","coordinates":[26.6828847,41.2571599]}},{"type":"Feature","properties":{"name":"Hacıgazi","place":"suburb","source":"OpenStreetMap","osm_type":"node","osm_id":10947829317},"geometry":{"type":"Point","coordinates":[26.8246084,41.5582425]}},{"type":"Feature","properties":{"name":"Hacıisa","place":"suburb","source":"OpenStreetMap","osm_type":"node","osm_id":10947829316},"geometry":{"type":"Point","coordinates":[26.8200315,41.550329]}},{"type":"Feature","properties":{"name":"Halise Hatun","place":"suburb","source":"OpenStreetMap","osm_type":"node","osm_id":13265586128},"geometry":{"type":"Point","coordinates":[26.6859702,41.2659066]}},{"type":"Feature","properties":{"name":"Helvacı","place":"suburb","source":"OpenStreetMap","osm_type":"node","osm_id":10947829315},"geometry":{"type":"Point","coordinates":[26.8208673,41.551694]}},{"type":"Feature","properties":{"name":"Karaağaç","place":"suburb","source":"OpenStreetMap","osm_type":"node","osm_id":7278241277},"geometry":{"type":"Point","coordinates":[26.5211752,41.6551004]}},{"type":"Feature","properties":{"name":"Kavak","place":"suburb","source":"OpenStreetMap","osm_type":"node","osm_id":13265586131},"geometry":{"type":"Point","coordinates":[26.6997475,41.270346]}},{"type":"Feature","properties":{"name":"Koca Sinan","place":"suburb","source":"OpenStreetMap","osm_type":"node","osm_id":10270056952},"geometry":{"type":"Point","coordinates":[26.5899415,41.6554363]}},{"type":"Feature","properties":{"name":"Kurtuluş","place":"suburb","source":"OpenStreetMap","osm_type":"node","osm_id":11658124654},"geometry":{"type":"Point","coordinates":[26.577457,41.6924314]}},{"type":"Feature","properties":{"name":"Küçük Doğanca","place":"suburb","source":"OpenStreetMap","osm_type":"node","osm_id":8094525832},"geometry":{"type":"Point","coordinates":[26.395862,41.192419]}},{"type":"Feature","properties":{"name":"Küçük Şehsuvarbey","place":"suburb","source":"OpenStreetMap","osm_type":"node","osm_id":13265586130},"geometry":{"type":"Point","coordinates":[26.6785347,41.2627604]}},{"type":"Feature","properties":{"name":"Mareşal Fevzi Çakmak","place":"suburb","source":"OpenStreetMap","osm_type":"node","osm_id":13265586132},"geometry":{"type":"Point","coordinates":[26.6916603,41.2713467]}},{"type":"Feature","properties":{"name":"Medrese Ali Bey","place":"suburb","source":"OpenStreetMap","osm_type":"node","osm_id":10270056963},"geometry":{"type":"Point","coordinates":[26.5645551,41.6742261]}},{"type":"Feature","properties":{"name":"Menzilahır","place":"suburb","source":"OpenStreetMap","osm_type":"node","osm_id":10270056960},"geometry":{"type":"Point","coordinates":[26.5666151,41.682624]}},{"type":"Feature","properties":{"name":"Mescit","place":"suburb","source":"OpenStreetMap","osm_type":"node","osm_id":13265586125},"geometry":{"type":"Point","coordinates":[26.6903752,41.2595922]}},{"type":"Feature","properties":{"name":"Meydan","place":"suburb","source":"OpenStreetMap","osm_type":"node","osm_id":6979469359},"geometry":{"type":"Point","coordinates":[26.5623899,41.6788956]}},{"type":"Feature","properties":{"name":"Mithat Paşa","place":"suburb","source":"OpenStreetMap","osm_type":"node","osm_id":8259548245},"geometry":{"type":"Point","coordinates":[26.5503475,41.6757901]}},{"type":"Feature","properties":{"name":"Muradiye","place":"suburb","source":"OpenStreetMap","osm_type":"node","osm_id":13265586133},"geometry":{"type":"Point","coordinates":[26.6904703,41.2647102]}},{"type":"Feature","properties":{"name":"Mustafa Kemal Paşa","place":"suburb","source":"OpenStreetMap","osm_type":"node","osm_id":8572032249},"geometry":{"type":"Point","coordinates":[26.6406458,40.8535301]}},{"type":"Feature","properties":{"name":"Nişancıpaşa","place":"suburb","source":"OpenStreetMap","osm_type":"node","osm_id":10270056962},"geometry":{"type":"Point","coordinates":[26.5689754,41.675925]}},{"type":"Feature","properties":{"name":"Paşayiğit","place":"suburb","source":"OpenStreetMap","osm_type":"node","osm_id":994337002},"geometry":{"type":"Point","coordinates":[26.6353111,40.9598042]}},{"type":"Feature","properties":{"name":"Rızaefendi","place":"suburb","source":"OpenStreetMap","osm_type":"node","osm_id":13265586129},"geometry":{"type":"Point","coordinates":[26.6830639,41.2682101]}},{"type":"Feature","properties":{"name":"Sabuni","place":"suburb","source":"OpenStreetMap","osm_type":"node","osm_id":6979466604},"geometry":{"type":"Point","coordinates":[26.5571997,41.6736521]}},{"type":"Feature","properties":{"name":"Sarıcapaşa","place":"suburb","source":"OpenStreetMap","osm_type":"node","osm_id":6979402535},"geometry":{"type":"Point","coordinates":[26.5609202,41.6756198]}},{"type":"Feature","properties":{"name":"Talatpaşa","place":"suburb","source":"OpenStreetMap","osm_type":"node","osm_id":10086871624},"geometry":{"type":"Point","coordinates":[26.5578835,41.6688898]}},{"type":"Feature","properties":{"name":"Umurbey","place":"suburb","source":"OpenStreetMap","osm_type":"node","osm_id":10270056959},"geometry":{"type":"Point","coordinates":[26.5626122,41.682557]}},{"type":"Feature","properties":{"name":"Varoş","place":"suburb","source":"OpenStreetMap","osm_type":"node","osm_id":10947829313},"geometry":{"type":"Point","coordinates":[26.8164763,41.5493042]}},{"type":"Feature","properties":{"name":"Yancıkçı Şahin","place":"suburb","source":"OpenStreetMap","osm_type":"node","osm_id":10270056964},"geometry":{"type":"Point","coordinates":[26.5673875,41.6717258]}},{"type":"Feature","properties":{"name":"Yeni","place":"suburb","source":"OpenStreetMap","osm_type":"node","osm_id":8572032252},"geometry":{"type":"Point","coordinates":[26.646495,40.84132]}},{"type":"Feature","properties":{"name":"Yeni","place":"suburb","source":"OpenStreetMap","osm_type":"node","osm_id":10947829314},"geometry":{"type":"Point","coordinates":[26.8123133,41.5514827]}},{"type":"Feature","properties":{"name":"Yeniimaret","place":"suburb","source":"OpenStreetMap","osm_type":"node","osm_id":7278241276},"geometry":{"type":"Point","coordinates":[26.5410149,41.6875453]}},{"type":"Feature","properties":{"name":"Yukarı Zaferiye","place":"suburb","source":"OpenStreetMap","osm_type":"node","osm_id":8572032248},"geometry":{"type":"Point","coordinates":[26.6347056,40.8519546]}},{"type":"Feature","properties":{"name":"Yörük","place":"suburb","source":"OpenStreetMap","osm_type":"node","osm_id":8572032247},"geometry":{"type":"Point","coordinates":[26.6358658,40.8560885]}},{"type":"Feature","properties":{"name":"Yıldırım Beyazıt","place":"suburb","source":"OpenStreetMap","osm_type":"node","osm_id":10270056957},"geometry":{"type":"Point","coordinates":[26.5271766,41.68185]}},{"type":"Feature","properties":{"name":"Yıldırım Hacı Sarraf","place":"suburb","source":"OpenStreetMap","osm_type":"node","osm_id":10270056958},"geometry":{"type":"Point","coordinates":[26.5324334,41.6844862]}},{"type":"Feature","properties":{"name":"Çataltepe","place":"suburb","source":"OpenStreetMap","osm_type":"node","osm_id":2268214629},"geometry":{"type":"Point","coordinates":[26.1529775,40.7352625]}},{"type":"Feature","properties":{"name":"Çavuşbey","place":"suburb","source":"OpenStreetMap","osm_type":"node","osm_id":8296200418},"geometry":{"type":"Point","coordinates":[26.5479465,41.6783131]}},{"type":"Feature","properties":{"name":"Çöpköy","place":"suburb","source":"OpenStreetMap","osm_type":"node","osm_id":2285874729},"geometry":{"type":"Point","coordinates":[26.8245114,41.2194443]}},{"type":"Feature","properties":{"name":"İspat Cami","place":"suburb","source":"OpenStreetMap","osm_type":"node","osm_id":8572032246},"geometry":{"type":"Point","coordinates":[26.6323912,40.8588826]}},{"type":"Feature","properties":{"name":"İstasyon","place":"suburb","source":"OpenStreetMap","osm_type":"node","osm_id":2501936800},"geometry":{"type":"Point","coordinates":[26.6351931,40.8807164]}},{"type":"Feature","properties":{"name":"İstasyon","place":"suburb","source":"OpenStreetMap","osm_type":"node","osm_id":10270056955},"geometry":{"type":"Point","coordinates":[26.5808485,41.6536414]}},{"type":"Feature","properties":{"name":"İzzetiye","place":"suburb","source":"OpenStreetMap","osm_type":"node","osm_id":8572032242},"geometry":{"type":"Point","coordinates":[26.6461293,40.8122832]}},{"type":"Feature","properties":{"name":"Şükrüpaşa","place":"suburb","source":"OpenStreetMap","osm_type":"node","osm_id":10270056956},"geometry":{"type":"Point","coordinates":[26.5876848,41.6660837]}},{"type":"Feature","properties":{"name":"Abalar","place":"village","source":"OpenStreetMap","osm_type":"node","osm_id":1494008506},"geometry":{"type":"Point","coordinates":[26.7436038,41.5450885]}},{"type":"Feature","properties":{"name":"Adasarhanlı","place":"village","source":"OpenStreetMap","osm_type":"node","osm_id":2312748073},"geometry":{"type":"Point","coordinates":[26.3569231,41.0838821]}},{"type":"Feature","properties":{"name":"Ahi","place":"village","source":"OpenStreetMap","osm_type":"node","osm_id":1494008508},"geometry":{"type":"Point","coordinates":[26.407351,41.778023]}},{"type":"Feature","properties":{"name":"Akhoca","place":"village","source":"OpenStreetMap","osm_type":"node","osm_id":994336393},"geometry":{"type":"Point","coordinates":[26.4033882,40.7192137]}},{"type":"Feature","properties":{"name":"Akçadam","place":"village","source":"OpenStreetMap","osm_type":"node","osm_id":2285872556},"geometry":{"type":"Point","coordinates":[26.5308523,41.305119]}},{"type":"Feature","properties":{"name":"Akçeşme","place":"village","source":"OpenStreetMap","osm_type":"node","osm_id":994336693},"geometry":{"type":"Point","coordinates":[26.490753,40.8492948]}},{"type":"Feature","properties":{"name":"Akıncılar","place":"village","source":"OpenStreetMap","osm_type":"node","osm_id":1321632541},"geometry":{"type":"Point","coordinates":[26.5182078,41.1923781]}},{"type":"Feature","properties":{"name":"Alibey","place":"village","source":"OpenStreetMap","osm_type":"node","osm_id":1321609582},"geometry":{"type":"Point","coordinates":[26.3551725,41.2451089]}},{"type":"Feature","properties":{"name":"Aliçopehlivan","place":"village","source":"OpenStreetMap","osm_type":"node","osm_id":994337055},"geometry":{"type":"Point","coordinates":[26.4398252,40.8409044]}},{"type":"Feature","properties":{"name":"Altıntaş","place":"village","source":"OpenStreetMap","osm_type":"node","osm_id":994336669},"geometry":{"type":"Point","coordinates":[26.7039454,41.0097965]}},{"type":"Feature","properties":{"name":"Altınyazı","place":"village","source":"OpenStreetMap","osm_type":"node","osm_id":2285872557},"geometry":{"type":"Point","coordinates":[26.5766577,41.07336]}},{"type":"Feature","properties":{"name":"Alıç","place":"village","source":"OpenStreetMap","osm_type":"node","osm_id":2285872558},"geometry":{"type":"Point","coordinates":[26.6510176,41.0615351]}},{"type":"Feature","properties":{"name":"Arizbaba","place":"village","source":"OpenStreetMap","osm_type":"node","osm_id":1494008516},"geometry":{"type":"Point","coordinates":[26.920828,41.617249]}},{"type":"Feature","properties":{"name":"Arpaç","place":"village","source":"OpenStreetMap","osm_type":"node","osm_id":2392430127},"geometry":{"type":"Point","coordinates":[26.8818127,41.690365]}},{"type":"Feature","properties":{"name":"Aslıhan","place":"village","source":"OpenStreetMap","osm_type":"node","osm_id":2285872559},"geometry":{"type":"Point","coordinates":[26.7954983,41.4128]}},{"type":"Feature","properties":{"name":"Avarız","place":"village","source":"OpenStreetMap","osm_type":"node","osm_id":2950317043},"geometry":{"type":"Point","coordinates":[26.545759,41.746808]}},{"type":"Feature","properties":{"name":"Azatlı","place":"village","source":"OpenStreetMap","osm_type":"node","osm_id":1494008514},"geometry":{"type":"Point","coordinates":[26.702332,41.501034]}},{"type":"Feature","properties":{"name":"Bahçeköy","place":"village","source":"OpenStreetMap","osm_type":"node","osm_id":994336170},"geometry":{"type":"Point","coordinates":[26.6769834,40.7843035]}},{"type":"Feature","properties":{"name":"Bakışlar","place":"village","source":"OpenStreetMap","osm_type":"node","osm_id":2313028395},"geometry":{"type":"Point","coordinates":[26.8308066,41.4582124]}},{"type":"Feature","properties":{"name":"Balaban","place":"village","source":"OpenStreetMap","osm_type":"node","osm_id":2285872560},"geometry":{"type":"Point","coordinates":[26.5480607,41.088898]}},{"type":"Feature","properties":{"name":"Balabancık","place":"village","source":"OpenStreetMap","osm_type":"node","osm_id":2285872561},"geometry":{"type":"Point","coordinates":[26.405064,41.033474]}},{"type":"Feature","properties":{"name":"Balabankoru","place":"village","source":"OpenStreetMap","osm_type":"node","osm_id":1321590738},"geometry":{"type":"Point","coordinates":[26.5153111,41.1110601]}},{"type":"Feature","properties":{"name":"Barağı","place":"village","source":"OpenStreetMap","osm_type":"node","osm_id":994336625},"geometry":{"type":"Point","coordinates":[26.4297312,40.7077037]}},{"type":"Feature","properties":{"name":"Bayramlı","place":"village","source":"OpenStreetMap","osm_type":"node","osm_id":2285872562},"geometry":{"type":"Point","coordinates":[26.8261259,41.306777]}},{"type":"Feature","properties":{"name":"Bayramtepe","place":"village","source":"OpenStreetMap","osm_type":"node","osm_id":8092214067},"geometry":{"type":"Point","coordinates":[26.7171205,41.0478748]}},{"type":"Feature","properties":{"name":"Başağıl","place":"village","source":"OpenStreetMap","osm_type":"node","osm_id":1320511713},"geometry":{"type":"Point","coordinates":[26.797079,41.2645128]}},{"type":"Feature","properties":{"name":"Beykonağı","place":"village","source":"OpenStreetMap","osm_type":"node","osm_id":2285820119},"geometry":{"type":"Point","coordinates":[26.7919419,41.1737246]}},{"type":"Feature","properties":{"name":"Beğendik","place":"village","source":"OpenStreetMap","osm_type":"node","osm_id":994336845},"geometry":{"type":"Point","coordinates":[26.5756538,40.9289308]}},{"type":"Feature","properties":{"name":"Bosna","place":"village","source":"OpenStreetMap","osm_type":"node","osm_id":1494008522},"geometry":{"type":"Point","coordinates":[26.565666,41.624668]}},{"type":"Feature","properties":{"name":"Bostanlı","place":"village","source":"OpenStreetMap","osm_type":"node","osm_id":1494008524},"geometry":{"type":"Point","coordinates":[26.970305,41.6108441]}},{"type":"Feature","properties":{"name":"Boztepe","place":"village","source":"OpenStreetMap","osm_type":"node","osm_id":661067106},"geometry":{"type":"Point","coordinates":[26.5187969,40.8430468]}},{"type":"Feature","properties":{"name":"Budakdoğanca","place":"village","source":"OpenStreetMap","osm_type":"node","osm_id":1064597470},"geometry":{"type":"Point","coordinates":[26.3418658,41.7611252]}},{"type":"Feature","properties":{"name":"Büyük Altıağaç","place":"village","source":"OpenStreetMap","osm_type":"node","osm_id":2285872566},"geometry":{"type":"Point","coordinates":[26.406725,41.112457]}},{"type":"Feature","properties":{"name":"Büyük Doğanca","place":"village","source":"OpenStreetMap","osm_type":"node","osm_id":994336255},"geometry":{"type":"Point","coordinates":[26.5844483,40.7717466]}},{"type":"Feature","properties":{"name":"Büyük Döllük","place":"village","source":"OpenStreetMap","osm_type":"node","osm_id":1494008529},"geometry":{"type":"Point","coordinates":[26.6010876,41.7582835]}},{"type":"Feature","properties":{"name":"Büyük Gerdelli","place":"village","source":"OpenStreetMap","osm_type":"node","osm_id":643581033},"geometry":{"type":"Point","coordinates":[26.9511114,41.7355319]}},{"type":"Feature","properties":{"name":"Büyük İsmailce","place":"village","source":"OpenStreetMap","osm_type":"node","osm_id":1494008536},"geometry":{"type":"Point","coordinates":[26.468807,41.815296]}},{"type":"Feature","properties":{"name":"Büyünlü","place":"village","source":"OpenStreetMap","osm_type":"node","osm_id":2405995552},"geometry":{"type":"Point","coordinates":[26.7332686,41.8918097]}},{"type":"Feature","properties":{"name":"Bıldır","place":"village","source":"OpenStreetMap","osm_type":"node","osm_id":1319354345},"geometry":{"type":"Point","coordinates":[26.8927029,41.2879572]}},{"type":"Feature","properties":{"name":"Davuteli","place":"village","source":"OpenStreetMap","osm_type":"node","osm_id":2285820139},"geometry":{"type":"Point","coordinates":[26.7376053,41.0558006]}},{"type":"Feature","properties":{"name":"Demircili","place":"village","source":"OpenStreetMap","osm_type":"node","osm_id":2285820156},"geometry":{"type":"Point","coordinates":[26.7683078,40.9969818]}},{"type":"Feature","properties":{"name":"Demirhanlı","place":"village","source":"OpenStreetMap","osm_type":"node","osm_id":1494008539},"geometry":{"type":"Point","coordinates":[26.738035,41.69767]}},{"type":"Feature","properties":{"name":"Demirköy","place":"village","source":"OpenStreetMap","osm_type":"node","osm_id":304240830},"geometry":{"type":"Point","coordinates":[26.6714085,41.9152768]}},{"type":"Feature","properties":{"name":"Dereköy","place":"village","source":"OpenStreetMap","osm_type":"node","osm_id":2285872573},"geometry":{"type":"Point","coordinates":[26.7084727,41.160126]}},{"type":"Feature","properties":{"name":"Değirmenci","place":"village","source":"OpenStreetMap","osm_type":"node","osm_id":2285872581},"geometry":{"type":"Point","coordinates":[26.6895117,41.30732]}},{"type":"Feature","properties":{"name":"Değirmenyanı","place":"village","source":"OpenStreetMap","osm_type":"node","osm_id":1494008541},"geometry":{"type":"Point","coordinates":[26.5534367,41.7625029]}},{"type":"Feature","properties":{"name":"Dişbudak","place":"village","source":"OpenStreetMap","osm_type":"node","osm_id":10066801409},"geometry":{"type":"Point","coordinates":[26.5749085,40.7195831]}},{"type":"Feature","properties":{"name":"Dombay","place":"village","source":"OpenStreetMap","osm_type":"node","osm_id":2405995554},"geometry":{"type":"Point","coordinates":[26.6329383,41.9027336]}},{"type":"Feature","properties":{"name":"Domurcalı","place":"village","source":"OpenStreetMap","osm_type":"node","osm_id":2405995555},"geometry":{"type":"Point","coordinates":[26.8198654,41.8161079]}},{"type":"Feature","properties":{"name":"Doğanköy","place":"village","source":"OpenStreetMap","osm_type":"node","osm_id":2405995556},"geometry":{"type":"Point","coordinates":[26.7007398,41.9275652]}},{"type":"Feature","properties":{"name":"Ekmekçi","place":"village","source":"OpenStreetMap","osm_type":"node","osm_id":2950799899},"geometry":{"type":"Point","coordinates":[26.4622783,41.7402939]}},{"type":"Feature","properties":{"name":"Elmalı","place":"village","source":"OpenStreetMap","osm_type":"node","osm_id":1319338298},"geometry":{"type":"Point","coordinates":[26.891115,41.1781697]}},{"type":"Feature","properties":{"name":"Esetçe","place":"village","source":"OpenStreetMap","osm_type":"node","osm_id":8740488741},"geometry":{"type":"Point","coordinates":[26.4426128,40.8709433]}},{"type":"Feature","properties":{"name":"Eskikadın","place":"village","source":"OpenStreetMap","osm_type":"node","osm_id":1494008551},"geometry":{"type":"Point","coordinates":[26.457615,41.7071432]}},{"type":"Feature","properties":{"name":"Eskiköy","place":"village","source":"OpenStreetMap","osm_type":"node","osm_id":2285872585},"geometry":{"type":"Point","coordinates":[26.6446371,41.3278245]}},{"type":"Feature","properties":{"name":"Gazihalil","place":"village","source":"OpenStreetMap","osm_type":"node","osm_id":2285872598},"geometry":{"type":"Point","coordinates":[26.6861637,41.057537]}},{"type":"Feature","properties":{"name":"Gazimehmet","place":"village","source":"OpenStreetMap","osm_type":"node","osm_id":1319354096},"geometry":{"type":"Point","coordinates":[26.9154695,41.2014707]}},{"type":"Feature","properties":{"name":"Gemici","place":"village","source":"OpenStreetMap","osm_type":"node","osm_id":2285872593},"geometry":{"type":"Point","coordinates":[26.557959,41.3146214]}},{"type":"Feature","properties":{"name":"Geçkinli","place":"village","source":"OpenStreetMap","osm_type":"node","osm_id":2392430132},"geometry":{"type":"Point","coordinates":[26.849077,41.731018]}},{"type":"Feature","properties":{"name":"Gündüzler","place":"village","source":"OpenStreetMap","osm_type":"node","osm_id":661064237},"geometry":{"type":"Point","coordinates":[26.4627266,40.7817849]}},{"type":"Feature","properties":{"name":"Habiller","place":"village","source":"OpenStreetMap","osm_type":"node","osm_id":26505205},"geometry":{"type":"Point","coordinates":[26.7952022,41.6694112]}},{"type":"Feature","properties":{"name":"Hacı","place":"village","source":"OpenStreetMap","osm_type":"node","osm_id":2312748087},"geometry":{"type":"Point","coordinates":[26.549271,40.980194]}},{"type":"Feature","properties":{"name":"Hacıdanişment","place":"village","source":"OpenStreetMap","osm_type":"node","osm_id":2405995557},"geometry":{"type":"Point","coordinates":[26.8218794,41.9099076]}},{"type":"Feature","properties":{"name":"Hacılar","place":"village","source":"OpenStreetMap","osm_type":"node","osm_id":2405995558},"geometry":{"type":"Point","coordinates":[26.7829584,41.9424925]}},{"type":"Feature","properties":{"name":"Hacıumur","place":"village","source":"OpenStreetMap","osm_type":"node","osm_id":2392581597},"geometry":{"type":"Point","coordinates":[26.787434,41.718132]}},{"type":"Feature","properties":{"name":"Hamidiye","place":"village","source":"OpenStreetMap","osm_type":"node","osm_id":2285872594},"geometry":{"type":"Point","coordinates":[26.6662092,41.1516463]}},{"type":"Feature","properties":{"name":"Hamitli","place":"village","source":"OpenStreetMap","osm_type":"node","osm_id":2285872595},"geometry":{"type":"Point","coordinates":[26.6952435,41.335571]}},{"type":"Feature","properties":{"name":"Hamzabeyli","place":"village","source":"OpenStreetMap","osm_type":"node","osm_id":1493514444},"geometry":{"type":"Point","coordinates":[26.6429565,41.9650154]}},{"type":"Feature","properties":{"name":"Hanlıyenice","place":"village","source":"OpenStreetMap","osm_type":"node","osm_id":2405995559},"geometry":{"type":"Point","coordinates":[26.6944835,41.8702728]}},{"type":"Feature","properties":{"name":"Harmanlı","place":"village","source":"OpenStreetMap","osm_type":"node","osm_id":2285872596},"geometry":{"type":"Point","coordinates":[26.7473975,41.0995954]}},{"type":"Feature","properties":{"name":"Hasanağa","place":"village","source":"OpenStreetMap","osm_type":"node","osm_id":1494008556},"geometry":{"type":"Point","coordinates":[26.6250053,41.7255055]}},{"type":"Feature","properties":{"name":"Hasanpınar","place":"village","source":"OpenStreetMap","osm_type":"node","osm_id":2285820214},"geometry":{"type":"Point","coordinates":[26.7523262,41.1723781]}},{"type":"Feature","properties":{"name":"Hasköy","place":"village","source":"OpenStreetMap","osm_type":"node","osm_id":26505208},"geometry":{"type":"Point","coordinates":[26.857925,41.639212]}},{"type":"Feature","properties":{"name":"Hasırcıarnavutköy","place":"village","source":"OpenStreetMap","osm_type":"node","osm_id":1321616156},"geometry":{"type":"Point","coordinates":[26.4606584,41.2729663]}},{"type":"Feature","properties":{"name":"Hatipköy","place":"village","source":"OpenStreetMap","osm_type":"node","osm_id":2405995560},"geometry":{"type":"Point","coordinates":[26.5660954,41.8169984]}},{"type":"Feature","properties":{"name":"Hisarlı","place":"village","source":"OpenStreetMap","osm_type":"node","osm_id":1494074654},"geometry":{"type":"Point","coordinates":[26.2114267,40.7207924]}},{"type":"Feature","properties":{"name":"Hüseyinpınar","place":"village","source":"OpenStreetMap","osm_type":"node","osm_id":2405995561},"geometry":{"type":"Point","coordinates":[26.5951143,41.8996652]}},{"type":"Feature","properties":{"name":"Hıdır","place":"village","source":"OpenStreetMap","osm_type":"node","osm_id":2312748092},"geometry":{"type":"Point","coordinates":[26.46228,40.914467]}},{"type":"Feature","properties":{"name":"Hıdırağa","place":"village","source":"OpenStreetMap","osm_type":"node","osm_id":1494008559},"geometry":{"type":"Point","coordinates":[26.659552,41.737617]}},{"type":"Feature","properties":{"name":"Işıklı","place":"village","source":"OpenStreetMap","osm_type":"node","osm_id":2299259193},"geometry":{"type":"Point","coordinates":[26.308376,40.7172595]}},{"type":"Feature","properties":{"name":"Kabaağaç","place":"village","source":"OpenStreetMap","osm_type":"node","osm_id":8094639478},"geometry":{"type":"Point","coordinates":[26.8655062,41.4805761]}},{"type":"Feature","properties":{"name":"Kadıdondurma","place":"village","source":"OpenStreetMap","osm_type":"node","osm_id":2312748096},"geometry":{"type":"Point","coordinates":[26.354118,41.173256]}},{"type":"Feature","properties":{"name":"Kadıköy","place":"village","source":"OpenStreetMap","osm_type":"node","osm_id":2285872599},"geometry":{"type":"Point","coordinates":[26.6763241,41.086833]}},{"type":"Feature","properties":{"name":"Kalkansöğüt","place":"village","source":"OpenStreetMap","osm_type":"node","osm_id":2405995562},"geometry":{"type":"Point","coordinates":[26.8129074,41.9711374]}},{"type":"Feature","properties":{"name":"Karaağaç","place":"village","source":"OpenStreetMap","osm_type":"node","osm_id":2285872600},"geometry":{"type":"Point","coordinates":[26.52993,41.061031]}},{"type":"Feature","properties":{"name":"Karabulut","place":"village","source":"OpenStreetMap","osm_type":"node","osm_id":1494008563},"geometry":{"type":"Point","coordinates":[26.436403,41.768646]}},{"type":"Feature","properties":{"name":"Karabürçek","place":"village","source":"OpenStreetMap","osm_type":"node","osm_id":2285872601},"geometry":{"type":"Point","coordinates":[26.8412449,41.1476205]}},{"type":"Feature","properties":{"name":"Karacaali","place":"village","source":"OpenStreetMap","osm_type":"node","osm_id":994336513},"geometry":{"type":"Point","coordinates":[26.663237,40.9986407]}},{"type":"Feature","properties":{"name":"Karahamza","place":"village","source":"OpenStreetMap","osm_type":"node","osm_id":2285872602},"geometry":{"type":"Point","coordinates":[26.5386353,41.269157]}},{"type":"Feature","properties":{"name":"Karahisar","place":"village","source":"OpenStreetMap","osm_type":"node","osm_id":661061281},"geometry":{"type":"Point","coordinates":[26.5043774,40.7649535]}},{"type":"Feature","properties":{"name":"Karakasım","place":"village","source":"OpenStreetMap","osm_type":"node","osm_id":1494008565},"geometry":{"type":"Point","coordinates":[26.644151,41.5168135]}},{"type":"Feature","properties":{"name":"Karapınar","place":"village","source":"OpenStreetMap","osm_type":"node","osm_id":2285872609},"geometry":{"type":"Point","coordinates":[26.6338817,41.116119]}},{"type":"Feature","properties":{"name":"Karasatı","place":"village","source":"OpenStreetMap","osm_type":"node","osm_id":994337147},"geometry":{"type":"Point","coordinates":[26.69351,40.9639934]}},{"type":"Feature","properties":{"name":"Karayayla","place":"village","source":"OpenStreetMap","osm_type":"node","osm_id":2285872610},"geometry":{"type":"Point","coordinates":[26.5804364,41.2503555]}},{"type":"Feature","properties":{"name":"Karayusuf","place":"village","source":"OpenStreetMap","osm_type":"node","osm_id":1494008566},"geometry":{"type":"Point","coordinates":[26.6949146,41.7317897]}},{"type":"Feature","properties":{"name":"Karayusuflu","place":"village","source":"OpenStreetMap","osm_type":"node","osm_id":1321612601},"geometry":{"type":"Point","coordinates":[26.4332998,41.2631926]}},{"type":"Feature","properties":{"name":"Karlı","place":"village","source":"OpenStreetMap","osm_type":"node","osm_id":661060748},"geometry":{"type":"Point","coordinates":[26.5480649,40.7438548]}},{"type":"Feature","properties":{"name":"Kavacık","place":"village","source":"OpenStreetMap","osm_type":"node","osm_id":1319292415},"geometry":{"type":"Point","coordinates":[26.6689185,41.185341]}},{"type":"Feature","properties":{"name":"Kavakayazma","place":"village","source":"OpenStreetMap","osm_type":"node","osm_id":1321590189},"geometry":{"type":"Point","coordinates":[26.5290225,41.1357424]}},{"type":"Feature","properties":{"name":"Kavaklı","place":"village","source":"OpenStreetMap","osm_type":"node","osm_id":1321625337},"geometry":{"type":"Point","coordinates":[26.5224565,41.2339756]}},{"type":"Feature","properties":{"name":"Kavaklı","place":"village","source":"OpenStreetMap","osm_type":"node","osm_id":2613440220},"geometry":{"type":"Point","coordinates":[26.7528033,41.7942004]}},{"type":"Feature","properties":{"name":"Kayapa","place":"village","source":"OpenStreetMap","osm_type":"node","osm_id":1494008570},"geometry":{"type":"Point","coordinates":[26.6886318,41.7749284]}},{"type":"Feature","properties":{"name":"Kemalköy","place":"village","source":"OpenStreetMap","osm_type":"node","osm_id":1064597404},"geometry":{"type":"Point","coordinates":[26.3950257,41.7354037]}},{"type":"Feature","properties":{"name":"Kiremitçisalih","place":"village","source":"OpenStreetMap","osm_type":"node","osm_id":2285872612},"geometry":{"type":"Point","coordinates":[26.6151573,41.3110483]}},{"type":"Feature","properties":{"name":"Kocahıdır","place":"village","source":"OpenStreetMap","osm_type":"node","osm_id":2299259195},"geometry":{"type":"Point","coordinates":[26.4051966,40.8096773]}},{"type":"Feature","properties":{"name":"Kocahıdır","place":"village","source":"OpenStreetMap","osm_type":"node","osm_id":2392581598},"geometry":{"type":"Point","coordinates":[26.917515,41.650356]}},{"type":"Feature","properties":{"name":"Korucu","place":"village","source":"OpenStreetMap","osm_type":"node","osm_id":2405995564},"geometry":{"type":"Point","coordinates":[26.656305,41.7921585]}},{"type":"Feature","properties":{"name":"Korucu","place":"village","source":"OpenStreetMap","osm_type":"node","osm_id":2563441277},"geometry":{"type":"Point","coordinates":[26.4964505,40.898306]}},{"type":"Feature","properties":{"name":"Koyuntepe","place":"village","source":"OpenStreetMap","osm_type":"node","osm_id":2299259196},"geometry":{"type":"Point","coordinates":[26.344163,40.7672682]}},{"type":"Feature","properties":{"name":"Kozköy","place":"village","source":"OpenStreetMap","osm_type":"node","osm_id":994336174},"geometry":{"type":"Point","coordinates":[26.6097908,41.0208845]}},{"type":"Feature","properties":{"name":"Kulubalık","place":"village","source":"OpenStreetMap","osm_type":"node","osm_id":1494008578},"geometry":{"type":"Point","coordinates":[26.8269605,41.471341]}},{"type":"Feature","properties":{"name":"Kumdere","place":"village","source":"OpenStreetMap","osm_type":"node","osm_id":2312748108},"geometry":{"type":"Point","coordinates":[26.367104,40.866039]}},{"type":"Feature","properties":{"name":"Kurdu","place":"village","source":"OpenStreetMap","osm_type":"node","osm_id":2285872613},"geometry":{"type":"Point","coordinates":[26.5720054,41.3046265]}},{"type":"Feature","properties":{"name":"Kurtbey","place":"village","source":"OpenStreetMap","osm_type":"node","osm_id":1321587040},"geometry":{"type":"Point","coordinates":[26.5786112,41.1471672]}},{"type":"Feature","properties":{"name":"Kurttepe","place":"village","source":"OpenStreetMap","osm_type":"node","osm_id":2285872614},"geometry":{"type":"Point","coordinates":[26.7011687,41.370403]}},{"type":"Feature","properties":{"name":"Kuzucu","place":"village","source":"OpenStreetMap","osm_type":"node","osm_id":1494008582},"geometry":{"type":"Point","coordinates":[26.812239,41.506558]}},{"type":"Feature","properties":{"name":"Köseömer","place":"village","source":"OpenStreetMap","osm_type":"node","osm_id":1494008583},"geometry":{"type":"Point","coordinates":[26.9033217,41.5874326]}},{"type":"Feature","properties":{"name":"Köşençiftliği","place":"village","source":"OpenStreetMap","osm_type":"node","osm_id":1494008585},"geometry":{"type":"Point","coordinates":[26.684008,41.656952]}},{"type":"Feature","properties":{"name":"Küküler","place":"village","source":"OpenStreetMap","osm_type":"node","osm_id":2392581600},"geometry":{"type":"Point","coordinates":[26.895571,41.715859]}},{"type":"Feature","properties":{"name":"Küpdere","place":"village","source":"OpenStreetMap","osm_type":"node","osm_id":2312784996},"geometry":{"type":"Point","coordinates":[26.4660997,41.222385]}},{"type":"Feature","properties":{"name":"Küplü","place":"village","source":"OpenStreetMap","osm_type":"node","osm_id":2312748112},"geometry":{"type":"Point","coordinates":[26.3509161,41.1082168]}},{"type":"Feature","properties":{"name":"Küçük Altıağaç","place":"village","source":"OpenStreetMap","osm_type":"node","osm_id":2285872616},"geometry":{"type":"Point","coordinates":[26.426661,41.120293]}},{"type":"Feature","properties":{"name":"Küçük Doğanca","place":"village","source":"OpenStreetMap","osm_type":"node","osm_id":994337143},"geometry":{"type":"Point","coordinates":[26.7113303,40.9384864]}},{"type":"Feature","properties":{"name":"Küçük Doğanca","place":"village","source":"OpenStreetMap","osm_type":"node","osm_id":2299259200},"geometry":{"type":"Point","coordinates":[26.4286,40.807182]}},{"type":"Feature","properties":{"name":"Küçük Döllük","place":"village","source":"OpenStreetMap","osm_type":"node","osm_id":1494008589},"geometry":{"type":"Point","coordinates":[26.6679502,41.7557498]}},{"type":"Feature","properties":{"name":"Küçünlü","place":"village","source":"OpenStreetMap","osm_type":"node","osm_id":2405995565},"geometry":{"type":"Point","coordinates":[26.7666554,41.9347185]}},{"type":"Feature","properties":{"name":"Kılıçköy","place":"village","source":"OpenStreetMap","osm_type":"node","osm_id":661060820},"geometry":{"type":"Point","coordinates":[26.5529326,40.784286]}},{"type":"Feature","properties":{"name":"Kırcasalih","place":"village","source":"OpenStreetMap","osm_type":"node","osm_id":1040942372},"geometry":{"type":"Point","coordinates":[26.8013093,41.394275]}},{"type":"Feature","properties":{"name":"Kırkkavak","place":"village","source":"OpenStreetMap","osm_type":"node","osm_id":8094525833},"geometry":{"type":"Point","coordinates":[26.7449677,41.212202]}},{"type":"Feature","properties":{"name":"Kırköy","place":"village","source":"OpenStreetMap","osm_type":"node","osm_id":2285872618},"geometry":{"type":"Point","coordinates":[26.7218334,41.1072861]}},{"type":"Feature","properties":{"name":"Kızkapan","place":"village","source":"OpenStreetMap","osm_type":"node","osm_id":661060751},"geometry":{"type":"Point","coordinates":[26.4870396,40.7410263]}},{"type":"Feature","properties":{"name":"Lalacık","place":"village","source":"OpenStreetMap","osm_type":"node","osm_id":994336251},"geometry":{"type":"Point","coordinates":[26.6051402,40.9731608]}},{"type":"Feature","properties":{"name":"Mahmutköy","place":"village","source":"OpenStreetMap","osm_type":"node","osm_id":26521074},"geometry":{"type":"Point","coordinates":[26.7443485,40.759468]}},{"type":"Feature","properties":{"name":"Maksutlu","place":"village","source":"OpenStreetMap","osm_type":"node","osm_id":2285872620},"geometry":{"type":"Point","coordinates":[26.6936701,41.1195384]}},{"type":"Feature","properties":{"name":"Malkoçköy","place":"village","source":"OpenStreetMap","osm_type":"node","osm_id":1320516315},"geometry":{"type":"Point","coordinates":[26.766425,41.2750562]}},{"type":"Feature","properties":{"name":"Maltepe","place":"village","source":"OpenStreetMap","osm_type":"node","osm_id":994336348},"geometry":{"type":"Point","coordinates":[26.6402979,40.9875694]}},{"type":"Feature","properties":{"name":"Menekşe Sofular","place":"village","source":"OpenStreetMap","osm_type":"node","osm_id":1494008590},"geometry":{"type":"Point","coordinates":[26.6406296,41.7631604]}},{"type":"Feature","properties":{"name":"Mercan","place":"village","source":"OpenStreetMap","osm_type":"node","osm_id":994336546},"geometry":{"type":"Point","coordinates":[26.6033579,40.7477251]}},{"type":"Feature","properties":{"name":"Meşeli","place":"village","source":"OpenStreetMap","osm_type":"node","osm_id":2285872621},"geometry":{"type":"Point","coordinates":[26.7264042,41.3890625]}},{"type":"Feature","properties":{"name":"Muhacirkadı","place":"village","source":"OpenStreetMap","osm_type":"node","osm_id":2285872622},"geometry":{"type":"Point","coordinates":[26.8760523,41.3325142]}},{"type":"Feature","properties":{"name":"Muratçalı","place":"village","source":"OpenStreetMap","osm_type":"node","osm_id":2405995566},"geometry":{"type":"Point","coordinates":[26.6163167,41.8045916]}},{"type":"Feature","properties":{"name":"Musabeyli","place":"village","source":"OpenStreetMap","osm_type":"node","osm_id":1494008595},"geometry":{"type":"Point","coordinates":[26.661238,41.697121]}},{"type":"Feature","properties":{"name":"Musulca","place":"village","source":"OpenStreetMap","osm_type":"node","osm_id":2392581603},"geometry":{"type":"Point","coordinates":[26.8636883,41.6742534]}},{"type":"Feature","properties":{"name":"Naipyusuf","place":"village","source":"OpenStreetMap","osm_type":"node","osm_id":8094639479},"geometry":{"type":"Point","coordinates":[26.9046998,41.4839143]}},{"type":"Feature","properties":{"name":"Nasuhbey","place":"village","source":"OpenStreetMap","osm_type":"node","osm_id":1321607093},"geometry":{"type":"Point","coordinates":[26.3454736,41.215674]}},{"type":"Feature","properties":{"name":"Necatiye","place":"village","source":"OpenStreetMap","osm_type":"node","osm_id":612127281},"geometry":{"type":"Point","coordinates":[26.9005173,41.5006445]}},{"type":"Feature","properties":{"name":"Olacak","place":"village","source":"OpenStreetMap","osm_type":"node","osm_id":1321623357},"geometry":{"type":"Point","coordinates":[26.4742625,41.2153835]}},{"type":"Feature","properties":{"name":"Orhaniye","place":"village","source":"OpenStreetMap","osm_type":"node","osm_id":661064616},"geometry":{"type":"Point","coordinates":[26.4326783,40.7324088]}},{"type":"Feature","properties":{"name":"Orhaniye","place":"village","source":"OpenStreetMap","osm_type":"node","osm_id":1494008601},"geometry":{"type":"Point","coordinates":[26.652922,41.514778]}},{"type":"Feature","properties":{"name":"Ortakçı","place":"village","source":"OpenStreetMap","osm_type":"node","osm_id":2405995567},"geometry":{"type":"Point","coordinates":[26.7356784,41.785013]}},{"type":"Feature","properties":{"name":"Osmanlı","place":"village","source":"OpenStreetMap","osm_type":"node","osm_id":2950200240},"geometry":{"type":"Point","coordinates":[26.8359387,41.58865]}},{"type":"Feature","properties":{"name":"Oğulpaşa","place":"village","source":"OpenStreetMap","osm_type":"node","osm_id":1494008603},"geometry":{"type":"Point","coordinates":[26.7495262,41.6011466]}},{"type":"Feature","properties":{"name":"Pazardere","place":"village","source":"OpenStreetMap","osm_type":"node","osm_id":2312748117},"geometry":{"type":"Point","coordinates":[26.580414,40.97942]}},{"type":"Feature","properties":{"name":"Paşaköy","place":"village","source":"OpenStreetMap","osm_type":"node","osm_id":2299259201},"geometry":{"type":"Point","coordinates":[26.320835,40.849365]}},{"type":"Feature","properties":{"name":"Paşayenice","place":"village","source":"OpenStreetMap","osm_type":"node","osm_id":1321629165},"geometry":{"type":"Point","coordinates":[26.554879,41.1983683]}},{"type":"Feature","properties":{"name":"Pırnar","place":"village","source":"OpenStreetMap","osm_type":"node","osm_id":994336153},"geometry":{"type":"Point","coordinates":[26.6380922,40.7078628]}},{"type":"Feature","properties":{"name":"Rahmanca","place":"village","source":"OpenStreetMap","osm_type":"node","osm_id":2285872623},"geometry":{"type":"Point","coordinates":[26.48962,41.283546]}},{"type":"Feature","properties":{"name":"Saatağacı","place":"village","source":"OpenStreetMap","osm_type":"node","osm_id":1321637620},"geometry":{"type":"Point","coordinates":[26.5085519,41.1659887]}},{"type":"Feature","properties":{"name":"Saksağan","place":"village","source":"OpenStreetMap","osm_type":"node","osm_id":2405995568},"geometry":{"type":"Point","coordinates":[26.6045915,41.8768019]}},{"type":"Feature","properties":{"name":"Salarlı","place":"village","source":"OpenStreetMap","osm_type":"node","osm_id":1320551812},"geometry":{"type":"Point","coordinates":[26.6285719,41.2265014]}},{"type":"Feature","properties":{"name":"Sarayakpınar","place":"village","source":"OpenStreetMap","osm_type":"node","osm_id":1494008609},"geometry":{"type":"Point","coordinates":[26.4802027,41.7794043]}},{"type":"Feature","properties":{"name":"Sarpdere","place":"village","source":"OpenStreetMap","osm_type":"node","osm_id":8740488742},"geometry":{"type":"Point","coordinates":[26.4321511,40.88673]}},{"type":"Feature","properties":{"name":"Sarıcaali","place":"village","source":"OpenStreetMap","osm_type":"node","osm_id":2312748124},"geometry":{"type":"Point","coordinates":[26.383383,40.985455]}},{"type":"Feature","properties":{"name":"Sarıdanişment","place":"village","source":"OpenStreetMap","osm_type":"node","osm_id":2405995569},"geometry":{"type":"Point","coordinates":[26.8288254,41.8660278]}},{"type":"Feature","properties":{"name":"Sazlı Malkoç","place":"village","source":"OpenStreetMap","osm_type":"node","osm_id":1040941132},"geometry":{"type":"Point","coordinates":[26.8781628,41.3580929]}},{"type":"Feature","properties":{"name":"Sazlıdere","place":"village","source":"OpenStreetMap","osm_type":"node","osm_id":1494008605},"geometry":{"type":"Point","coordinates":[26.679438,41.610169]}},{"type":"Feature","properties":{"name":"Seren","place":"village","source":"OpenStreetMap","osm_type":"node","osm_id":2285872629},"geometry":{"type":"Point","coordinates":[26.5148268,41.3136675]}},{"type":"Feature","properties":{"name":"Seydiköy","place":"village","source":"OpenStreetMap","osm_type":"node","osm_id":994336510},"geometry":{"type":"Point","coordinates":[26.7336817,40.7898724]}},{"type":"Feature","properties":{"name":"Sinanköy","place":"village","source":"OpenStreetMap","osm_type":"node","osm_id":2405995570},"geometry":{"type":"Point","coordinates":[26.6988876,41.8159591]}},{"type":"Feature","properties":{"name":"Sipahi","place":"village","source":"OpenStreetMap","osm_type":"node","osm_id":1319354369},"geometry":{"type":"Point","coordinates":[26.8917587,41.2283623]}},{"type":"Feature","properties":{"name":"Siğilli","place":"village","source":"OpenStreetMap","osm_type":"node","osm_id":661067024},"geometry":{"type":"Point","coordinates":[26.5962162,40.8146008]}},{"type":"Feature","properties":{"name":"Suakacağı","place":"village","source":"OpenStreetMap","osm_type":"node","osm_id":2405995571},"geometry":{"type":"Point","coordinates":[26.5865363,41.8407474]}},{"type":"Feature","properties":{"name":"Subaşı","place":"village","source":"OpenStreetMap","osm_type":"node","osm_id":2312748127},"geometry":{"type":"Point","coordinates":[26.3748377,41.1432301]}},{"type":"Feature","properties":{"name":"Sultan","place":"village","source":"OpenStreetMap","osm_type":"node","osm_id":2285872630},"geometry":{"type":"Point","coordinates":[26.453489,41.025162]}},{"type":"Feature","properties":{"name":"Sultanşah","place":"village","source":"OpenStreetMap","osm_type":"node","osm_id":1319354072},"geometry":{"type":"Point","coordinates":[26.8870166,41.2501854]}},{"type":"Feature","properties":{"name":"Söğütlüdere","place":"village","source":"OpenStreetMap","osm_type":"node","osm_id":1494008606},"geometry":{"type":"Point","coordinates":[26.8054306,41.6359202]}},{"type":"Feature","properties":{"name":"Sülecik","place":"village","source":"OpenStreetMap","osm_type":"node","osm_id":2405995572},"geometry":{"type":"Point","coordinates":[26.8502134,41.8148759]}},{"type":"Feature","properties":{"name":"Süleyman Danişment","place":"village","source":"OpenStreetMap","osm_type":"node","osm_id":2405995573},"geometry":{"type":"Point","coordinates":[26.8895824,41.8969797]}},{"type":"Feature","properties":{"name":"Süleymaniye","place":"village","source":"OpenStreetMap","osm_type":"node","osm_id":2285872631},"geometry":{"type":"Point","coordinates":[26.8041135,41.1211684]}},{"type":"Feature","properties":{"name":"Sütçüler","place":"village","source":"OpenStreetMap","osm_type":"node","osm_id":2299259204},"geometry":{"type":"Point","coordinates":[26.3191665,40.711473]}},{"type":"Feature","properties":{"name":"Sığırcılı","place":"village","source":"OpenStreetMap","osm_type":"node","osm_id":2285872632},"geometry":{"type":"Point","coordinates":[26.6411867,41.406261]}},{"type":"Feature","properties":{"name":"Tahal","place":"village","source":"OpenStreetMap","osm_type":"node","osm_id":1448325342},"geometry":{"type":"Point","coordinates":[26.8562753,41.4258894]}},{"type":"Feature","properties":{"name":"Taptık","place":"village","source":"OpenStreetMap","osm_type":"node","osm_id":1494008611},"geometry":{"type":"Point","coordinates":[26.911213,41.543251]}},{"type":"Feature","properties":{"name":"Tatarlar","place":"village","source":"OpenStreetMap","osm_type":"node","osm_id":2392430142},"geometry":{"type":"Point","coordinates":[26.886011,41.835865]}},{"type":"Feature","properties":{"name":"Tayakadın","place":"village","source":"OpenStreetMap","osm_type":"node","osm_id":1494008616},"geometry":{"type":"Point","coordinates":[26.660427,41.575623]}},{"type":"Feature","properties":{"name":"Taşlımüsellim","place":"village","source":"OpenStreetMap","osm_type":"node","osm_id":2405995574},"geometry":{"type":"Point","coordinates":[26.7703754,41.8234669]}},{"type":"Feature","properties":{"name":"Taşlısekban","place":"village","source":"OpenStreetMap","osm_type":"node","osm_id":2392430143},"geometry":{"type":"Point","coordinates":[26.877626,41.803295]}},{"type":"Feature","properties":{"name":"Tevfikiye","place":"village","source":"OpenStreetMap","osm_type":"node","osm_id":2285872633},"geometry":{"type":"Point","coordinates":[26.4938268,41.0636385]}},{"type":"Feature","properties":{"name":"Turnacı","place":"village","source":"OpenStreetMap","osm_type":"node","osm_id":2285872634},"geometry":{"type":"Point","coordinates":[26.9250389,41.2527882]}},{"type":"Feature","properties":{"name":"Turpçular","place":"village","source":"OpenStreetMap","osm_type":"node","osm_id":2312748131},"geometry":{"type":"Point","coordinates":[26.43816,40.941803]}},{"type":"Feature","properties":{"name":"Tuğlalık","place":"village","source":"OpenStreetMap","osm_type":"node","osm_id":1493514476},"geometry":{"type":"Point","coordinates":[26.6154847,41.9245138]}},{"type":"Feature","properties":{"name":"Türkmen","place":"village","source":"OpenStreetMap","osm_type":"node","osm_id":661064224},"geometry":{"type":"Point","coordinates":[26.505064,40.8062855]}},{"type":"Feature","properties":{"name":"Türkobası","place":"village","source":"OpenStreetMap","osm_type":"node","osm_id":2285872635},"geometry":{"type":"Point","coordinates":[26.6096793,41.0933345]}},{"type":"Feature","properties":{"name":"Umurca","place":"village","source":"OpenStreetMap","osm_type":"node","osm_id":1321603068},"geometry":{"type":"Point","coordinates":[26.3583482,41.2004188]}},{"type":"Feature","properties":{"name":"Uzgaç","place":"village","source":"OpenStreetMap","osm_type":"node","osm_id":1494008621},"geometry":{"type":"Point","coordinates":[26.4366667,41.7924572]}},{"type":"Feature","properties":{"name":"Uzunbayır","place":"village","source":"OpenStreetMap","osm_type":"node","osm_id":2405995575},"geometry":{"type":"Point","coordinates":[26.5920017,41.9273315]}},{"type":"Feature","properties":{"name":"Vaysal","place":"village","source":"OpenStreetMap","osm_type":"node","osm_id":2405995576},"geometry":{"type":"Point","coordinates":[26.8717184,41.9420655]}},{"type":"Feature","properties":{"name":"Yakupbey","place":"village","source":"OpenStreetMap","osm_type":"node","osm_id":2285872636},"geometry":{"type":"Point","coordinates":[26.554531,41.239536]}},{"type":"Feature","properties":{"name":"Yapıldak","place":"village","source":"OpenStreetMap","osm_type":"node","osm_id":994337158},"geometry":{"type":"Point","coordinates":[26.4428258,40.7929118]}},{"type":"Feature","properties":{"name":"Yağcılı","place":"village","source":"OpenStreetMap","osm_type":"node","osm_id":2392430144},"geometry":{"type":"Point","coordinates":[26.8289237,41.7837392]}},{"type":"Feature","properties":{"name":"Yağmurca","place":"village","source":"OpenStreetMap","osm_type":"node","osm_id":1319325252},"geometry":{"type":"Point","coordinates":[26.8638825,41.1686262]}},{"type":"Feature","properties":{"name":"Yeni Karpuzlu","place":"village","source":"OpenStreetMap","osm_type":"node","osm_id":2299259206},"geometry":{"type":"Point","coordinates":[26.2944164,40.8307567]}},{"type":"Feature","properties":{"name":"Yenice","place":"village","source":"OpenStreetMap","osm_type":"node","osm_id":1494074721},"geometry":{"type":"Point","coordinates":[26.1492201,40.7002882]}},{"type":"Feature","properties":{"name":"Yenicegörice","place":"village","source":"OpenStreetMap","osm_type":"node","osm_id":1321591784},"geometry":{"type":"Point","coordinates":[26.4677754,41.1310847]}},{"type":"Feature","properties":{"name":"Yeniceçiftlik","place":"village","source":"OpenStreetMap","osm_type":"node","osm_id":8093365717},"geometry":{"type":"Point","coordinates":[26.5717418,40.8743457]}},{"type":"Feature","properties":{"name":"Yenikadın","place":"village","source":"OpenStreetMap","osm_type":"node","osm_id":1494008623},"geometry":{"type":"Point","coordinates":[26.437388,41.698437]}},{"type":"Feature","properties":{"name":"Yenimuhacir","place":"village","source":"OpenStreetMap","osm_type":"node","osm_id":994337076},"geometry":{"type":"Point","coordinates":[26.6951873,40.8584203]}},{"type":"Feature","properties":{"name":"Yerlisu","place":"village","source":"OpenStreetMap","osm_type":"node","osm_id":994336736},"geometry":{"type":"Point","coordinates":[26.7288691,40.7256862]}},{"type":"Feature","properties":{"name":"Yeşilköy","place":"village","source":"OpenStreetMap","osm_type":"node","osm_id":994336383},"geometry":{"type":"Point","coordinates":[26.5181925,40.7097865]}},{"type":"Feature","properties":{"name":"Yolageldi","place":"village","source":"OpenStreetMap","osm_type":"node","osm_id":1494008625},"geometry":{"type":"Point","coordinates":[26.949383,41.520561]}},{"type":"Feature","properties":{"name":"Yolüstü","place":"village","source":"OpenStreetMap","osm_type":"node","osm_id":2405995577},"geometry":{"type":"Point","coordinates":[26.558074,41.79646]}},{"type":"Feature","properties":{"name":"Yünlüce","place":"village","source":"OpenStreetMap","osm_type":"node","osm_id":2405995579},"geometry":{"type":"Point","coordinates":[26.6334586,41.8531776]}},{"type":"Feature","properties":{"name":"Yılanlı","place":"village","source":"OpenStreetMap","osm_type":"node","osm_id":2285820506},"geometry":{"type":"Point","coordinates":[26.7427052,40.965111]}},{"type":"Feature","properties":{"name":"Çakmakköy","place":"village","source":"OpenStreetMap","osm_type":"node","osm_id":8094525835},"geometry":{"type":"Point","coordinates":[26.6660367,41.3747398]}},{"type":"Feature","properties":{"name":"Çallıdere","place":"village","source":"OpenStreetMap","osm_type":"node","osm_id":2405997217},"geometry":{"type":"Point","coordinates":[26.7241461,41.9403335]}},{"type":"Feature","properties":{"name":"Çalıköy","place":"village","source":"OpenStreetMap","osm_type":"node","osm_id":2285874717},"geometry":{"type":"Point","coordinates":[26.5959489,41.2865928]}},{"type":"Feature","properties":{"name":"Çamlıca","place":"village","source":"OpenStreetMap","osm_type":"node","osm_id":661071932},"geometry":{"type":"Point","coordinates":[26.6725314,40.7626402]}},{"type":"Feature","properties":{"name":"Çandır","place":"village","source":"OpenStreetMap","osm_type":"node","osm_id":2299259876},"geometry":{"type":"Point","coordinates":[26.2665503,40.7292586]}},{"type":"Feature","properties":{"name":"Çatma","place":"village","source":"OpenStreetMap","osm_type":"node","osm_id":2405997218},"geometry":{"type":"Point","coordinates":[26.638493,41.8838002]}},{"type":"Feature","properties":{"name":"Çiftlikköy","place":"village","source":"OpenStreetMap","osm_type":"node","osm_id":2285874726},"geometry":{"type":"Point","coordinates":[26.615332,41.248219]}},{"type":"Feature","properties":{"name":"Çobanpınarı","place":"village","source":"OpenStreetMap","osm_type":"node","osm_id":2291600050},"geometry":{"type":"Point","coordinates":[26.5670902,41.1782441]}},{"type":"Feature","properties":{"name":"Çobançeşmesi","place":"village","source":"OpenStreetMap","osm_type":"node","osm_id":994336432},"geometry":{"type":"Point","coordinates":[26.668888,40.9596534]}},{"type":"Feature","properties":{"name":"Çukur","place":"village","source":"OpenStreetMap","osm_type":"node","osm_id":1494008730},"geometry":{"type":"Point","coordinates":[26.8199663,41.4683993]}},{"type":"Feature","properties":{"name":"Çömlek Akpınar","place":"village","source":"OpenStreetMap","osm_type":"node","osm_id":2405995578},"geometry":{"type":"Point","coordinates":[26.645501,41.8379272]}},{"type":"Feature","properties":{"name":"Çömlekköy","place":"village","source":"OpenStreetMap","osm_type":"node","osm_id":2405997219},"geometry":{"type":"Point","coordinates":[26.6094623,41.8428076]}},{"type":"Feature","properties":{"name":"Ömerbey","place":"village","source":"OpenStreetMap","osm_type":"node","osm_id":1320507492},"geometry":{"type":"Point","coordinates":[26.8371825,41.2671528]}},{"type":"Feature","properties":{"name":"Ömeroba","place":"village","source":"OpenStreetMap","osm_type":"node","osm_id":2405997220},"geometry":{"type":"Point","coordinates":[26.9291393,41.9234269]}},{"type":"Feature","properties":{"name":"Üyüklütatar","place":"village","source":"OpenStreetMap","osm_type":"node","osm_id":1494008731},"geometry":{"type":"Point","coordinates":[26.610935,41.544365]}},{"type":"Feature","properties":{"name":"İbriktepe","place":"village","source":"OpenStreetMap","osm_type":"node","osm_id":1494143830},"geometry":{"type":"Point","coordinates":[26.5035944,41.0114138]}},{"type":"Feature","properties":{"name":"İskender","place":"village","source":"OpenStreetMap","osm_type":"node","osm_id":1494008732},"geometry":{"type":"Point","coordinates":[26.672529,41.629376]}},{"type":"Feature","properties":{"name":"Şerbettar","place":"village","source":"OpenStreetMap","osm_type":"node","osm_id":1494008733},"geometry":{"type":"Point","coordinates":[26.7595817,41.4615412]}},{"type":"Feature","properties":{"name":"Şükrüköy","place":"village","source":"OpenStreetMap","osm_type":"node","osm_id":994336342},"geometry":{"type":"Point","coordinates":[26.7158689,40.7875267]}},{"type":"Feature","properties":{"name":"Пашово","place":"village","source":"OpenStreetMap","osm_type":"node","osm_id":273816494},"geometry":{"type":"Point","coordinates":[26.3764299,41.8270247]}}]}